[{"OBJECT_NAME":"ASTROCAST-0103","OBJECT_ID":"2021-006CC","EPOCH":"2026-03-09T16:48:48.818592","MEAN_MOTION":15.73114428,"ECCENTRICITY":0.00057063,"INCLINATION":97.2627,"RA_OF_ASC_NODE":138.0845,"ARG_OF_PERICENTER":147.86,"MEAN_ANOMALY":212.3013,"EPHEMERIS_TYPE":0,"CLASSIFICATION_TYPE":"U","NORAD_CAT_ID":47487,"ELEMENT_SET_NO":999,"REV_AT_EPOCH":28552,"BSTAR":0.00063759595,"MEAN_MOTION_DOT":0.00087857,"MEAN_MOTION_DDOT":0},{"OBJECT_NAME":"STARLINK-11741 [DTC]","OBJECT_ID":"2025-107A","EPOCH":"2026-03-09T10:41:43.898208","MEAN_MOTION":15.70882089,"ECCENTRICITY":7.782e-5,"INCLINATION":42.9981,"RA_OF_ASC_NODE":100.243,"ARG_OF_PERICENTER":293.4539,"MEAN_ANOMALY":66.6247,"EPHEMERIS_TYPE":0,"CLASSIFICATION_TYPE":"U","NORAD_CAT_ID":64064,"ELEMENT_SET_NO":999,"REV_AT_EPOCH":4725,"BSTAR":0.0013541515,"MEAN_MOTION_DOT":0.00177378,"MEAN_MOTION_DDOT":0}]
