ASTROCAST-0103          
1 47487U 21006CC  26068.70056502  .00087857  00000+0  63760-3 0  9995
2 47487  97.2627 138.0845 0005706 147.8600 212.3013 15.73114428285528
STARLINK-11741 [DTC]    
1 64064U 25107A   26068.44564697  .00177378  00000+0  13542-2 0  9991
2 64064  42.9981 100.2430 0000778 293.4539  66.6247 15.70882089 47259
